STARLINK-2438
1 28103C 21027M   21325.14097669 -.00000406  00000-0 -27221-4 0  3256
2 28103  53.0510 357.5970 0001755  53.5871  65.1258 15.06404596    13
